EUTELSAT 8 WEST B       
1 40875U 15039B   25297.92961487 -.00000053  00000+0  00000+0 0  9990
2 40875   0.0697 359.1014 0003945 219.5294 141.6092  1.00271628 37295
EUTELSAT 9B             
1 41310U 16005A   25297.94628009  .00000075  00000+0  00000+0 0  9994
2 41310   0.0709  70.2067 0003727 172.8299 140.2319  1.00272857 35758
EUTELSAT 65 WEST A      
1 41382U 16014A   25297.74873030 -.00000264  00000+0  00000+0 0  9998
2 41382   0.0642  39.5771 0002280 183.2441  14.9288  1.00271019 35178
EUTELSAT 117 WEST B     
1 41589U 16038B   25297.88107095  .00000001  00000+0  00000+0 0  9997
2 41589   0.0126  89.4525 0000180 162.9016 341.3835  1.00269485 34307
EUTELSAT 172B           
1 42741U 17029B   25297.79570387  .00000008  00000+0  00000+0 0  9994
2 42741   0.0216 166.4000 0000084 280.5771  44.9492  1.00275599 31372
EUTELSAT 7C             
1 44334U 19034B   25294.30789122  .00000055  00000+0  00000+0 0  9997
2 44334   0.0659 185.0176 0003112   6.0169 316.8247  1.00271467  4448
EUTELSAT 5 WEST B       
1 44624U 19067A   25297.92961487 -.00000029  00000+0  00000+0 0  9994
2 44624   0.0686 357.8415 0003058 213.4312 152.0106  1.00271052 22071
EUTELSAT KONNECT        
1 45027U 20005B   25296.89747531  .00000062  00000+0  00000+0 0  9999
2 45027   0.0678  90.1745 0001636 138.8486 133.8557  1.00273164 21954
